{"type": "FeatureCollection", "features": [{"type": "Feature", "properties": {"stop_id": "MOBIITI:StopPlace:78710", "stop_name": "11 Novembre 1918", "routes_serving": "150"}, "geometry": {"type": "Point", "coordinates": [-1.150414, 46.173306]}}, {"type": "Feature", "properties": {"stop_id": "MOBIITI:StopPlace:78695", "stop_name": "Aéroport", "routes_serving": "150;151;152"}, "geometry": {"type": "Point", "coordinates": [-1.195469, 46.175617]}}, {"type": "Feature", "properties": {"stop_id": "MOBIITI:StopPlace:78776", "stop_name": "Beauregard", "routes_serving": "150;151;152"}, "geometry": {"type": "Point", "coordinates": [-1.140969, 46.167721]}}, {"type": "Feature", "properties": {"stop_id": "MOBIITI:StopPlace:54385", "stop_name": "Bel Air", "routes_serving": "141;142"}, "geometry": {"type": "Point", "coordinates": [-0.989214, 46.308121]}}, {"type": "Feature", "properties": {"stop_id": "MOBIITI:StopPlace:54389", "stop_name": "Bel Ebat", "routes_serving": "141;142"}, "geometry": {"type": "Point", "coordinates": [-1.033204, 46.252048]}}, {"type": "Feature", "properties": {"stop_id": "MOBIITI:StopPlace:54242", "stop_name": "Belvédère", "routes_serving": "150;151;152"}, "geometry": {"type": "Point", "coordinates": [-1.219232, 46.174301]}}, {"type": "Feature", "properties": {"stop_id": "MOBIITI:StopPlace:54551", "stop_name": "Centre Commercial Beaulieu", "routes_serving": "140;141;142"}, "geometry": {"type": "Point", "coordinates": [-1.116052, 46.175358]}}, {"type": "Feature", "properties": {"stop_id": "MOBIITI:StopPlace:54214", "stop_name": "Collège Françoise Dolto", "routes_serving": "143"}, "geometry": {"type": "Point", "coordinates": [-1.001311, 46.131283]}}, {"type": "Feature", "properties": {"stop_id": "MOBIITI:StopPlace:54202", "stop_name": "Collège Jean Monnet", "routes_serving": "140"}, "geometry": {"type": "Point", "coordinates": [-0.809568, 46.24078]}}, {"type": "Feature", "properties": {"stop_id": "MOBIITI:StopPlace:54442", "stop_name": "Eglise de Le Thou", "routes_serving": "143"}, "geometry": {"type": "Point", "coordinates": [-0.916921, 46.085178]}}, {"type": "Feature", "properties": {"stop_id": "MOBIITI:StopPlace:76768", "stop_name": "Eglise de St-Mard", "routes_serving": "175"}, "geometry": {"type": "Point", "coordinates": [-0.709793, 46.085785]}}, {"type": "Feature", "properties": {"stop_id": "MOBIITI:StopPlace:54396", "stop_name": "Eglise de St-Ouen-d'Aunis", "routes_serving": "142"}, "geometry": {"type": "Point", "coordinates": [-1.035023, 46.23177]}}, {"type": "Feature", "properties": {"stop_id": "MOBIITI:StopPlace:78699", "stop_name": "Esplanade des Parcs", "routes_serving": "150;151;152"}, "geometry": {"type": "Point", "coordinates": [-1.15371, 46.166031]}}, {"type": "Feature", "properties": {"stop_id": "MOBIITI:StopPlace:54432", "stop_name": "FOR Château d'Eau", "routes_serving": "143"}, "geometry": {"type": "Point", "coordinates": [-0.900401, 46.104332]}}, {"type": "Feature", "properties": {"stop_id": "MOBIITI:StopPlace:54425", "stop_name": "Fief de Soubise", "routes_serving": "143"}, "geometry": {"type": "Point", "coordinates": [-0.935755, 46.111115]}}, {"type": "Feature", "properties": {"stop_id": "MOBIITI:StopPlace:74577", "stop_name": "Gare SNCF Aigrefeuille Le Thou", "routes_serving": "143"}, "geometry": {"type": "Point", "coordinates": [-0.951476, 46.094364]}}, {"type": "Feature", "properties": {"stop_id": "MOBIITI:StopPlace:54427", "stop_name": "Gare SNCF Surgères", "routes_serving": "143;154;175"}, "geometry": {"type": "Point", "coordinates": [-0.762592, 46.112854]}}, {"type": "Feature", "properties": {"stop_id": "MOBIITI:StopPlace:54221", "stop_name": "Gare routière", "routes_serving": "140;140E;141;142;143;150;151;152;153;155"}, "geometry": {"type": "Point", "coordinates": [-1.141, 46.152805]}}, {"type": "Feature", "properties": {"stop_id": "MOBIITI:StopPlace:54199", "stop_name": "Gendarmerie de Nuaillé-d'Aunis", "routes_serving": "140"}, "geometry": {"type": "Point", "coordinates": [-0.928177, 46.226006]}}, {"type": "Feature", "properties": {"stop_id": "MOBIITI:StopPlace:65760", "stop_name": "Grand Fief", "routes_serving": "154"}, "geometry": {"type": "Point", "coordinates": [-0.828563, 46.037682]}}, {"type": "Feature", "properties": {"stop_id": "MOBIITI:StopPlace:54459", "stop_name": "L'Abbaye", "routes_serving": "175"}, "geometry": {"type": "Point", "coordinates": [-0.717016, 46.080334]}}, {"type": "Feature", "properties": {"stop_id": "MOBIITI:StopPlace:54461", "stop_name": "LDV Place du Prieuré", "routes_serving": "175"}, "geometry": {"type": "Point", "coordinates": [-0.706897, 46.050743]}}, {"type": "Feature", "properties": {"stop_id": "MOBIITI:StopPlace:76769", "stop_name": "LRO Hôpital Joffre", "routes_serving": "140;141;142"}, "geometry": {"type": "Point", "coordinates": [-1.142747, 46.158825]}}, {"type": "Feature", "properties": {"stop_id": "MOBIITI:StopPlace:76770", "stop_name": "La Bourgne", "routes_serving": "140E;143"}, "geometry": {"type": "Point", "coordinates": [-1.091054, 46.162567]}}, {"type": "Feature", "properties": {"stop_id": "MOBIITI:StopPlace:53980", "stop_name": "La Bourgne", "routes_serving": "140E;143"}, "geometry": {"type": "Point", "coordinates": [-1.093062, 46.16206]}}, {"type": "Feature", "properties": {"stop_id": "MOBIITI:StopPlace:54424", "stop_name": "La Fragnée", "routes_serving": "143"}, "geometry": {"type": "Point", "coordinates": [-0.947976, 46.114326]}}, {"type": "Feature", "properties": {"stop_id": "MOBIITI:StopPlace:54415", "stop_name": "Le Cher", "routes_serving": "143"}, "geometry": {"type": "Point", "coordinates": [-0.839384, 46.103531]}}, {"type": "Feature", "properties": {"stop_id": "MOBIITI:StopPlace:54382", "stop_name": "Le Communal", "routes_serving": "141;142"}, "geometry": {"type": "Point", "coordinates": [-1.064764, 46.243675]}}, {"type": "Feature", "properties": {"stop_id": "MOBIITI:StopPlace:54460", "stop_name": "Le Grand Chemin", "routes_serving": "175"}, "geometry": {"type": "Point", "coordinates": [-0.707304, 46.087666]}}, {"type": "Feature", "properties": {"stop_id": "MOBIITI:StopPlace:54384", "stop_name": "Le Vignaud", "routes_serving": "141;142"}, "geometry": {"type": "Point", "coordinates": [-1.069608, 46.238388]}}, {"type": "Feature", "properties": {"stop_id": "MOBIITI:StopPlace:54449", "stop_name": "Les Bernardeaux", "routes_serving": "154"}, "geometry": {"type": "Point", "coordinates": [-0.825875, 46.030964]}}, {"type": "Feature", "properties": {"stop_id": "MOBIITI:StopPlace:54388", "stop_name": "Mairie d'Andilly", "routes_serving": "141;142"}, "geometry": {"type": "Point", "coordinates": [-1.028335, 46.253357]}}, {"type": "Feature", "properties": {"stop_id": "MOBIITI:StopPlace:78860", "stop_name": "Mairie de Clavette", "routes_serving": "143"}, "geometry": {"type": "Point", "coordinates": [-1.027279, 46.138973]}}, {"type": "Feature", "properties": {"stop_id": "MOBIITI:StopPlace:78812", "stop_name": "Moulin des Justices", "routes_serving": "140;141;142"}, "geometry": {"type": "Point", "coordinates": [-1.125377, 46.170456]}}, {"type": "Feature", "properties": {"stop_id": "MOBIITI:StopPlace:54201", "stop_name": "Moulin des Prés", "routes_serving": "140"}, "geometry": {"type": "Point", "coordinates": [-0.815569, 46.246727]}}, {"type": "Feature", "properties": {"stop_id": "MOBIITI:StopPlace:78835", "stop_name": "P+R Périgny", "routes_serving": "140E;143"}, "geometry": {"type": "Point", "coordinates": [-1.109312, 46.15601]}}, {"type": "Feature", "properties": {"stop_id": "MOBIITI:StopPlace:78866", "stop_name": "P+R Simone Veil", "routes_serving": "153"}, "geometry": {"type": "Point", "coordinates": [-1.128193, 46.142845]}}, {"type": "Feature", "properties": {"stop_id": "MOBIITI:StopPlace:53978", "stop_name": "PEY Passy", "routes_serving": "143"}, "geometry": {"type": "Point", "coordinates": [-1.095591, 46.16169]}}, {"type": "Feature", "properties": {"stop_id": "MOBIITI:StopPlace:54448", "stop_name": "Place St-André", "routes_serving": "154"}, "geometry": {"type": "Point", "coordinates": [-0.787487, 46.077297]}}, {"type": "Feature", "properties": {"stop_id": "MOBIITI:StopPlace:74578", "stop_name": "Place Tombouctou", "routes_serving": "140E"}, "geometry": {"type": "Point", "coordinates": [-0.677554, 46.191635]}}, {"type": "Feature", "properties": {"stop_id": "MOBIITI:StopPlace:53831", "stop_name": "Place de Verdun", "routes_serving": "150;151;152"}, "geometry": {"type": "Point", "coordinates": [-1.153849, 46.162121]}}, {"type": "Feature", "properties": {"stop_id": "MOBIITI:StopPlace:54194", "stop_name": "Place de l'Eglise", "routes_serving": "140"}, "geometry": {"type": "Point", "coordinates": [-0.886733, 46.217796]}}, {"type": "Feature", "properties": {"stop_id": "MOBIITI:StopPlace:54422", "stop_name": "Place du 8 Mai", "routes_serving": "143"}, "geometry": {"type": "Point", "coordinates": [-0.93677, 46.115318]}}, {"type": "Feature", "properties": {"stop_id": "MOBIITI:StopPlace:85181", "stop_name": "Porte Dauphine", "routes_serving": "150;151;152"}, "geometry": {"type": "Point", "coordinates": [-1.152516, 46.168098]}}, {"type": "Feature", "properties": {"stop_id": "MOBIITI:StopPlace:54431", "stop_name": "Puydrouard Rue du Calvaire", "routes_serving": "143"}, "geometry": {"type": "Point", "coordinates": [-0.90925, 46.102715]}}, {"type": "Feature", "properties": {"stop_id": "MOBIITI:StopPlace:54213", "stop_name": "Puyvineux Chemin de la Bataille", "routes_serving": "143"}, "geometry": {"type": "Point", "coordinates": [-0.984263, 46.12711]}}, {"type": "Feature", "properties": {"stop_id": "MOBIITI:StopPlace:54200", "stop_name": "Route de La Rochelle", "routes_serving": "140"}, "geometry": {"type": "Point", "coordinates": [-0.875226, 46.26469]}}, {"type": "Feature", "properties": {"stop_id": "MOBIITI:StopPlace:54395", "stop_name": "Rue Paul Braud", "routes_serving": "142"}, "geometry": {"type": "Point", "coordinates": [-1.032516, 46.226551]}}, {"type": "Feature", "properties": {"stop_id": "MOBIITI:StopPlace:54394", "stop_name": "Rue des Pruneaux", "routes_serving": "142"}, "geometry": {"type": "Point", "coordinates": [-1.033233, 46.222904]}}, {"type": "Feature", "properties": {"stop_id": "MOBIITI:StopPlace:54430", "stop_name": "SUR Collège Hélène De Fonsèque", "routes_serving": "143;175"}, "geometry": {"type": "Point", "coordinates": [-0.742651, 46.108807]}}, {"type": "Feature", "properties": {"stop_id": "MOBIITI:StopPlace:54428", "stop_name": "SUR Place du Château", "routes_serving": "143;175"}, "geometry": {"type": "Point", "coordinates": [-0.752577, 46.105358]}}, {"type": "Feature", "properties": {"stop_id": "MOBIITI:StopPlace:54390", "stop_name": "Stade", "routes_serving": "141;142"}, "geometry": {"type": "Point", "coordinates": [-1.0228, 46.254627]}}, {"type": "Feature", "properties": {"stop_id": "MOBIITI:StopPlace:54387", "stop_name": "Sérigny Place de l'Ecole", "routes_serving": "141;142"}, "geometry": {"type": "Point", "coordinates": [-1.004852, 46.263176]}}, {"type": "Feature", "properties": {"stop_id": "MOBIITI:StopPlace:54444", "stop_name": "THO Charmeneuil", "routes_serving": "143"}, "geometry": {"type": "Point", "coordinates": [-0.933207, 46.089855]}}, {"type": "Feature", "properties": {"stop_id": "MOBIITI:StopPlace:54443", "stop_name": "THO Cigogne", "routes_serving": "143"}, "geometry": {"type": "Point", "coordinates": [-0.927209, 46.086323]}}, {"type": "Feature", "properties": {"stop_id": "MOBIITI:StopPlace:54441", "stop_name": "THO Fief Girard", "routes_serving": "143"}, "geometry": {"type": "Point", "coordinates": [-0.942422, 46.099976]}}, {"type": "Feature", "properties": {"stop_id": "MOBIITI:StopPlace:78816", "stop_name": "Usseau Ecole", "routes_serving": "140;140E;142"}, "geometry": {"type": "Point", "coordinates": [-1.030454, 46.202034]}}, {"type": "Feature", "properties": {"stop_id": "MOBIITI:StopPlace:67921", "stop_name": "ZA de l'Aunis", "routes_serving": "140;140E"}, "geometry": {"type": "Point", "coordinates": [-0.87696, 46.229553]}}, {"type": "Feature", "properties": {"stop_id": "MOBIITI:StopPlace:54429", "stop_name": "Zone industrielle Ouest", "routes_serving": "143"}, "geometry": {"type": "Point", "coordinates": [-0.773952, 46.110321]}}]}