{"type": "FeatureCollection", "features": [{"type": "Feature", "properties": {"route_short_name": "K9", "route_long_name": "Nantes - La Rochelle", "route_type": "rail", "trip_id_used": "OCESN859805F1187_F:TER:FR:Line::0732042B-024F-4BDC-AFC7-37B9EAFF657D::87481002:87485003:8:2150:20260925", "n_stations": 8, "stations_in_order": "Nantes > Clisson > Montaigu > L'Herbergement - Les Brouzils > Belleville-Vend\u00e9e > La Roche-sur-Yon > Lu\u00e7on > La Rochelle"}, "geometry": {"type": "LineString", "coordinates": [[-1.542077, 47.217491], [-1.286292, 47.086015], [-1.316189, 46.98372], [-1.371279, 46.906946], [-1.434512, 46.788329], [-1.43566, 46.672075], [-1.167421, 46.463627], [-1.145853, 46.152705]]}}, {"type": "Feature", "properties": {"route_short_name": "433H", "route_long_name": "Paris - La Rochelle", "route_type": "rail", "trip_id_used": "OCESN7641F1187_F:OGO:FR:Line::07bfc39f-4dfd-46ce-98c3-aad42dfa98bd::87391003:87485003:5:1817:20261212", "n_stations": 5, "stations_in_order": "Paris Montparnasse Hall 1 - 2 > Poitiers > Niort > Surg\u00e8res > La Rochelle"}, "geometry": {"type": "LineString", "coordinates": [[2.320514, 48.841172], [0.333136, 46.582232], [-0.454639, 46.319491], [-0.762054, 46.113252], [-1.145853, 46.152705]]}}, {"type": "Feature", "properties": {"route_short_name": "421I", "route_long_name": "Paris - Poitiers - La Rochelle TGV", "route_type": "rail", "trip_id_used": "OCESN8375F1187_F:OUI:FR:Line::1C59DA64-5D12-4600-9092-4E99FCBFAC7A::87391003:87485003:7:1226:20260925", "n_stations": 7, "stations_in_order": "Paris Montparnasse Hall 1 - 2 > Saint-Pierre-des-Corps > Poitiers > Saint-Maixent-L'\u00c9cole > Niort > Surg\u00e8res > La Rochelle"}, "geometry": {"type": "LineString", "coordinates": [[2.320514, 48.841172], [0.723539, 47.38614], [0.333136, 46.582232], [-0.20132, 46.406482], [-0.454639, 46.319491], [-0.762054, 46.113252], [-1.145853, 46.152705]]}}, {"type": "Feature", "properties": {"route_short_name": "L15", "route_long_name": "15. La Rochelle - Rochefort - Saintes - Bordeaux", "route_type": "rail", "trip_id_used": "OCESN864809F1187_F:TER:FR:Line::4887f9fc-de66-44ff-a5fe-199a0de1ca9e::87437798:87581009:18:1905:20261206", "n_stations": 18, "stations_in_order": "La Rochelle Porte Dauphine > La Rochelle > Aytr\u00e9 Plage > Angoulins sur Mer > Ch\u00e2telaillon > Saint-Laurent-de-la-Pr\u00e9e - Fouras > Rochefort > Tonnay-Charente > Bords > Saint-Savinien > Saintes > Pons > Jonzac > Montendre > Saint-Mariens - Saint-Yzan > Saint-Andr\u00e9-de-Cubzac > Cenon > Bordeaux Saint-Jean"}, "geometry": {"type": "LineString", "coordinates": [[-1.151875, 46.167616], [-1.145853, 46.152705], [-1.128293, 46.12761], [-1.115622, 46.107785], [-1.091118, 46.078282], [-1.026912, 45.992563], [-0.963556, 45.947189], [-0.897789, 45.943401], [-0.798115, 45.894237], [-0.677878, 45.876038], [-0.6179, 45.74874], [-0.539021, 45.578213], [-0.44164, 45.438746], [-0.396233, 45.280514], [-0.391834, 45.139057], [-0.44048, 44.99122], [-0.533649, 44.856347], [-0.556697, 44.825873]]}}, {"type": "Feature", "properties": {"route_short_name": "D14", "route_long_name": "14. Poitiers - Niort - La Rochelle", "route_type": "rail", "trip_id_used": "OCESN863454F1187_F:TER:FR:Line::a45a3dd8-6a6b-4f95-9843-142901241f3b::87485003:87575001:11:1202:20261211", "n_stations": 11, "stations_in_order": "La Rochelle > La Jarrie > Aigrefeuille Le Thou > Surg\u00e8res > Mauz\u00e9 > Prin-Deyran\u00e7on > Niort > La Cr\u00e8che > Saint-Maixent-L'\u00c9cole > Lusignan > Poitiers"}, "geometry": {"type": "LineString", "coordinates": [[-1.145853, 46.152705], [-1.02347, 46.12045], [-0.95168, 46.09402], [-0.762054, 46.113252], [-0.673639, 46.199672], [-0.636413, 46.219032], [-0.454639, 46.319491], [-0.296204, 46.36044], [-0.20132, 46.406482], [0.116555, 46.435495], [0.333136, 46.582232]]}}, {"type": "Feature", "properties": {"route_short_name": "F15", "route_long_name": "15. La Rochelle - Rochefort - Saintes - Bordeaux", "route_type": "rail", "trip_id_used": "OCESN448607R1187_R:CTE:FR:Line::d7cd81b0-48e7-4fea-aa91-1fe47cf27535::87437798:87485144:7:1604:20261112", "n_stations": 7, "stations_in_order": "La Rochelle Porte Dauphine > La Rochelle > Aytr\u00e9 Plage > Angoulins sur Mer > Ch\u00e2telaillon > Saint-Laurent-de-la-Pr\u00e9e - Fouras > Rochefort"}, "geometry": {"type": "LineString", "coordinates": [[-1.151875, 46.167616], [-1.145853, 46.152705], [-1.128293, 46.12761], [-1.115622, 46.107785], [-1.091118, 46.078282], [-1.026912, 45.992563], [-0.963556, 45.947189]]}}, {"type": "Feature", "properties": {"route_short_name": "D15", "route_long_name": "15. La Rochelle - Rochefort - Saintes - Bordeaux", "route_type": "rail", "trip_id_used": "OCESN864803F1187_F:TER:FR:Line::e27d87a9-efd7-4218-bf71-50601354df88::87437798:87581009:13:1014:20261211", "n_stations": 13, "stations_in_order": "La Rochelle Porte Dauphine > La Rochelle > Ch\u00e2telaillon > Rochefort > Saintes > Pons > Jonzac > Montendre > Bussac > Saint-Mariens - Saint-Yzan > Saint-Andr\u00e9-de-Cubzac > Cenon > Bordeaux Saint-Jean"}, "geometry": {"type": "LineString", "coordinates": [[-1.151875, 46.167616], [-1.145853, 46.152705], [-1.091118, 46.078282], [-0.963556, 45.947189], [-0.6179, 45.74874], [-0.539021, 45.578213], [-0.44164, 45.438746], [-0.396233, 45.280514], [-0.368249, 45.212034], [-0.391834, 45.139057], [-0.44048, 44.99122], [-0.533649, 44.856347], [-0.556697, 44.825873]]}}, {"type": "Feature", "properties": {"route_short_name": "L14", "route_long_name": "14. Poitiers - Niort - La Rochelle", "route_type": "rail", "trip_id_used": "OCESN863444F1187_F:TER:FR:Line::ec7d6d78-7792-4822-be8b-5e0bab24ba62::87485003:87575001:14:803:20260912", "n_stations": 14, "stations_in_order": "La Rochelle > La Jarrie > Aigrefeuille Le Thou > Surg\u00e8res > Mauz\u00e9 > Prin-Deyran\u00e7on > Niort > La Cr\u00e8che > Saint-Maixent-L'\u00c9cole > La Mothe-Saint-H\u00e9ray > Pamproux > Rouill\u00e9 > Lusignan > Poitiers"}, "geometry": {"type": "LineString", "coordinates": [[-1.145853, 46.152705], [-1.02347, 46.12045], [-0.95168, 46.09402], [-0.762054, 46.113252], [-0.673639, 46.199672], [-0.636413, 46.219032], [-0.454639, 46.319491], [-0.296204, 46.36044], [-0.20132, 46.406482], [-0.129994, 46.380784], [-0.052034, 46.399594], [0.041045, 46.418654], [0.116555, 46.435495], [0.333136, 46.582232]]}}]}