{"type": "FeatureCollection", "features": [{"type": "Feature", "properties": {"stop_id": "StopArea:OCE87485193", "stop_name": "Aigrefeuille Le Thou", "routes_serving": "D14;L14"}, "geometry": {"type": "Point", "coordinates": [-0.95168, 46.09402]}}, {"type": "Feature", "properties": {"stop_id": "StopArea:OCE87485102", "stop_name": "Angoulins sur Mer", "routes_serving": "F15;L15"}, "geometry": {"type": "Point", "coordinates": [-1.115622, 46.107785]}}, {"type": "Feature", "properties": {"stop_id": "StopArea:OCE87437806", "stop_name": "Aytré Plage", "routes_serving": "F15;L15"}, "geometry": {"type": "Point", "coordinates": [-1.128293, 46.12761]}}, {"type": "Feature", "properties": {"stop_id": "StopArea:OCE87485110", "stop_name": "Châtelaillon", "routes_serving": "D15;F15;L15"}, "geometry": {"type": "Point", "coordinates": [-1.091118, 46.078282]}}, {"type": "Feature", "properties": {"stop_id": "StopArea:OCE87485185", "stop_name": "La Jarrie", "routes_serving": "D14;L14"}, "geometry": {"type": "Point", "coordinates": [-1.02347, 46.12045]}}, {"type": "Feature", "properties": {"stop_id": "StopArea:OCE87485003", "stop_name": "La Rochelle", "routes_serving": "421I;433H;D14;D15;F15;K9;L14;L15"}, "geometry": {"type": "Point", "coordinates": [-1.145853, 46.152705]}}, {"type": "Feature", "properties": {"stop_id": "StopArea:OCE87437798", "stop_name": "La Rochelle Porte Dauphine", "routes_serving": "D15;F15;L15"}, "geometry": {"type": "Point", "coordinates": [-1.151875, 46.167616]}}, {"type": "Feature", "properties": {"stop_id": "StopArea:OCE87485250", "stop_name": "Mauzé", "routes_serving": "D14;L14"}, "geometry": {"type": "Point", "coordinates": [-0.673639, 46.199672]}}, {"type": "Feature", "properties": {"stop_id": "StopArea:OCE87485227", "stop_name": "Surgères", "routes_serving": "421I;433H;D14;L14"}, "geometry": {"type": "Point", "coordinates": [-0.762054, 46.113252]}}]}